ONEWEB-0199             
1 48234U 21031AA  25025.55583523  .00000035  00000+0  60239-4 0  9999
2 48234  87.8990  30.6244 0001637  92.6069 267.5248 13.14502382181577
ONEWEB-0203             
1 48235U 21031AB  25026.07914835  .00000280  00000+0  71965-3 0  9991
2 48235  87.8991  30.5225 0001705 103.0302 257.1018 13.14502606181658
ONEWEB-0197             
1 48236U 21031AC  25026.05456698  .00000032  00000+0  51338-4 0  9996
2 48236  87.8990  30.5382 0001695  81.0386 279.0935 13.14502411181562
ONEWEB-0194             
1 48237U 21031AD  25026.03315359 -.00000203  00000+0 -58083-3 0  9998
2 48237  87.8992  30.5369 0001626  97.2060 262.9255 13.14502632181732
ONEWEB-0193             
1 48238U 21031AE  25026.04900707  .00000007  00000+0 -15127-4 0  9991
2 48238  87.8989  30.5416 0001877  94.5076 265.6268 13.14501920181684
ONEWEB-0191             
1 48239U 21031AF  25025.52728132  .00000198  00000+0  49929-3 0  9990
2 48239  87.8988  30.6226 0001873  93.2628 266.8716 13.14504136181479
ONEWEB-0195             
1 48240U 21031AG  25026.03712320 -.00000145  00000+0 -42629-3 0  9995
2 48240  87.8988  30.5191 0002251  92.7938 267.3450 13.14502533181526
ONEWEB-0201             
1 48241U 21031AH  25025.94990220 -.00000130  00000+0 -38601-3 0  9991
2 48241  87.8992  30.5786 0001967  88.2012 271.9343 13.14501811181742
